sat41465
1 41465U 16026B   20046.77350978  .00000984  00000-0  31792-4 0  9990
2 41465  97.1668 300.3685 0011050 340.8218  89.4531 15.34372504212613
